[{"OBJECT_NAME":"STARLINK-1603","OBJECT_ID":"2020-057AX","EPOCH":"2024-01-22T16:19:44.955552","MEAN_MOTION":15.0640235,"ECCENTRICITY":0.0001401,"INCLINATION":53.0523,"RA_OF_ASC_NODE":184.7477,"ARG_OF_PERICENTER":75.9958,"MEAN_ANOMALY":284.1187,"EPHEMERIS_TYPE":0,"CLASSIFICATION_TYPE":"U","NORAD_CAT_ID":46162,"ELEMENT_SET_NO":999,"REV_AT_EPOCH":18990,"BSTAR":0.00031354,"MEAN_MOTION_DOT":4.392e-5,"MEAN_MOTION_DDOT":0},{"OBJECT_NAME":"STARLINK-1610","OBJECT_ID":"2020-057AY","EPOCH":"2024-01-22T14:41:32.538624","MEAN_MOTION":15.06407665,"ECCENTRICITY":0.0001241,"INCLINATION":53.0532,"RA_OF_ASC_NODE":165.0555,"ARG_OF_PERICENTER":92.9971,"MEAN_ANOMALY":267.116,"EPHEMERIS_TYPE":0,"CLASSIFICATION_TYPE":"U","NORAD_CAT_ID":46163,"ELEMENT_SET_NO":999,"REV_AT_EPOCH":19016,"BSTAR":3.4005e-5,"MEAN_MOTION_DOT":2.25e-6,"MEAN_MOTION_DDOT":0},{"OBJECT_NAME":"STARLINK-1612","OBJECT_ID":"2020-057AZ","EPOCH":"2024-01-22T16:11:47.255136","MEAN_MOTION":15.0642449,"ECCENTRICITY":0.0001307,"INCLINATION":53.0534,"RA_OF_ASC_NODE":164.7748,"ARG_OF_PERICENTER":82.2212,"MEAN_ANOMALY":277.8925,"EPHEMERIS_TYPE":0,"CLASSIFICATION_TYPE":"U","NORAD_CAT_ID":46164,"ELEMENT_SET_NO":999,"REV_AT_EPOCH":19017,"BSTAR":0.00041547,"MEAN_MOTION_DOT":5.916e-5,"MEAN_MOTION_DDOT":0},{"OBJECT_NAME":"STARLINK-1613","OBJECT_ID":"2020-057BA","EPOCH":"2024-01-22T12:14:56.168448","MEAN_MOTION":15.49816395,"ECCENTRICITY":0.0001806,"INCLINATION":53.0558,"RA_OF_ASC_NODE":110.5224,"ARG_OF_PERICENTER":341.2903,"MEAN_ANOMALY":18.8038,"EPHEMERIS_TYPE":0,"CLASSIFICATION_TYPE":"U","NORAD_CAT_ID":46165,"ELEMENT_SET_NO":999,"REV_AT_EPOCH":19093,"BSTAR":0.0010015,"MEAN_MOTION_DOT":0.00056672,"MEAN_MOTION_DDOT":0},{"OBJECT_NAME":"STARLINK-1615","OBJECT_ID":"2020-057BB","EPOCH":"2024-01-21T19:08:34.043136","MEAN_MOTION":15.0640091,"ECCENTRICITY":0.0001434,"INCLINATION":53.0539,"RA_OF_ASC_NODE":208.7118,"ARG_OF_PERICENTER":104.729,"MEAN_ANOMALY":255.3858,"EPHEMERIS_TYPE":0,"CLASSIFICATION_TYPE":"U","NORAD_CAT_ID":46166,"ELEMENT_SET_NO":999,"REV_AT_EPOCH":18882,"BSTAR":0.00018216,"MEAN_MOTION_DOT":2.433e-5,"MEAN_MOTION_DDOT":0},{"OBJECT_NAME":"STARLINK-1626","OBJECT_ID":"2020-057BC","EPOCH":"2024-01-22T11:25:09.749856","MEAN_MOTION":15.06399931,"ECCENTRICITY":0.0001313,"INCLINATION":53.0529,"RA_OF_ASC_NODE":205.6674,"ARG_OF_PERICENTER":100.7069,"MEAN_ANOMALY":259.4067,"EPHEMERIS_TYPE":0,"CLASSIFICATION_TYPE":"U","NORAD_CAT_ID":46167,"ELEMENT_SET_NO":999,"REV_AT_EPOCH":18958,"BSTAR":-1.5859e-6,"MEAN_MOTION_DOT":-3.05e-6,"MEAN_MOTION_DDOT":0},{"OBJECT_NAME":"STARLINK-1627","OBJECT_ID":"2020-057BD","EPOCH":"2024-01-22T09:19:06.794112","MEAN_MOTION":15.06408284,"ECCENTRICITY":0.0001116,"INCLINATION":53.0532,"RA_OF_ASC_NODE":156.1446,"ARG_OF_PERICENTER":105.1391,"MEAN_ANOMALY":254.9721,"EPHEMERIS_TYPE":0,"CLASSIFICATION_TYPE":"U","NORAD_CAT_ID":46168,"ELEMENT_SET_NO":999,"REV_AT_EPOCH":19026,"BSTAR":-5.7082e-6,"MEAN_MOTION_DOT":-3.66e-6,"MEAN_MOTION_DDOT":0},{"OBJECT_NAME":"STARLINK-1628","OBJECT_ID":"2020-057BE","EPOCH":"2024-01-21T21:26:35.945376","MEAN_MOTION":15.06390263,"ECCENTRICITY":0.0001271,"INCLINATION":53.0523,"RA_OF_ASC_NODE":208.6636,"ARG_OF_PERICENTER":81.9166,"MEAN_ANOMALY":278.1967,"EPHEMERIS_TYPE":0,"CLASSIFICATION_TYPE":"U","NORAD_CAT_ID":46169,"ELEMENT_SET_NO":999,"REV_AT_EPOCH":18877,"BSTAR":-0.00025273,"MEAN_MOTION_DOT":-4.043e-5,"MEAN_MOTION_DDOT":0},{"OBJECT_NAME":"STARLINK-1633","OBJECT_ID":"2020-057BG","EPOCH":"2024-01-22T17:12:48.788640","MEAN_MOTION":15.06412498,"ECCENTRICITY":0.0001252,"INCLINATION":53.0548,"RA_OF_ASC_NODE":184.5799,"ARG_OF_PERICENTER":86.3275,"MEAN_ANOMALY":273.7857,"EPHEMERIS_TYPE":0,"CLASSIFICATION_TYPE":"U","NORAD_CAT_ID":46171,"ELEMENT_SET_NO":999,"REV_AT_EPOCH":18989,"BSTAR":0.00014345,"MEAN_MOTION_DOT":1.857e-5,"MEAN_MOTION_DDOT":0},{"OBJECT_NAME":"STARLINK-1635","OBJECT_ID":"2020-057BH","EPOCH":"2024-01-22T11:11:53.532384","MEAN_MOTION":15.06403212,"ECCENTRICITY":0.0001212,"INCLINATION":53.0533,"RA_OF_ASC_NODE":185.7028,"ARG_OF_PERICENTER":82.8517,"MEAN_ANOMALY":277.2609,"EPHEMERIS_TYPE":0,"CLASSIFICATION_TYPE":"U","NORAD_CAT_ID":46172,"ELEMENT_SET_NO":999,"REV_AT_EPOCH":18985,"BSTAR":2.5867e-5,"MEAN_MOTION_DOT":1.04e-6,"MEAN_MOTION_DDOT":0},{"OBJECT_NAME":"STARLINK-1640","OBJECT_ID":"2020-057BJ","EPOCH":"2024-01-22T18:40:23.297952","MEAN_MOTION":15.0641215,"ECCENTRICITY":0.0001229,"INCLINATION":53.053,"RA_OF_ASC_NODE":204.3068,"ARG_OF_PERICENTER":90.9879,"MEAN_ANOMALY":269.1251,"EPHEMERIS_TYPE":0,"CLASSIFICATION_TYPE":"U","NORAD_CAT_ID":46173,"ELEMENT_SET_NO":999,"REV_AT_EPOCH":18962,"BSTAR":0.0001394,"MEAN_MOTION_DOT":1.796e-5,"MEAN_MOTION_DDOT":0},{"OBJECT_NAME":"STARLINK-1641","OBJECT_ID":"2020-057BK","EPOCH":"2024-01-22T12:28:51.272832","MEAN_MOTION":15.06407827,"ECCENTRICITY":0.0001209,"INCLINATION":53.0528,"RA_OF_ASC_NODE":205.4636,"ARG_OF_PERICENTER":102.9816,"MEAN_ANOMALY":257.1308,"EPHEMERIS_TYPE":0,"CLASSIFICATION_TYPE":"U","NORAD_CAT_ID":46174,"ELEMENT_SET_NO":999,"REV_AT_EPOCH":18958,"BSTAR":7.8554e-5,"MEAN_MOTION_DOT":8.89e-6,"MEAN_MOTION_DDOT":0}]
