STARLINK-1603           
1 46162U 20057AX  24022.68038143  .00004392  00000+0  31354-3 0  9992
2 46162  53.0523 184.7477 0001401  75.9958 284.1187 15.06402350189900
STARLINK-1610           
1 46163U 20057AY  24022.61218216  .00000225  00000+0  34005-4 0  9995
2 46163  53.0532 165.0555 0001241  92.9971 267.1160 15.06407665190162
STARLINK-1612           
1 46164U 20057AZ  24022.67485249  .00005916  00000+0  41547-3 0  9994
2 46164  53.0534 164.7748 0001307  82.2212 277.8925 15.06424490190171
STARLINK-1613           
1 46165U 20057BA  24022.51037232  .00056672  00000+0  10015-2 0  9993
2 46165  53.0558 110.5224 0001806 341.2903  18.8038 15.49816395190933
STARLINK-1615           
1 46166U 20057BB  24021.79761624  .00002433  00000+0  18216-3 0  9990
2 46166  53.0539 208.7118 0001434 104.7290 255.3858 15.06400910188821
STARLINK-1626           
1 46167U 20057BC  24022.47580729 -.00000305  00000+0 -15859-5 0  9992
2 46167  53.0529 205.6674 0001313 100.7069 259.4067 15.06399931189581
STARLINK-1627           
1 46168U 20057BD  24022.38827308 -.00000366  00000+0 -57082-5 0  9991
2 46168  53.0532 156.1446 0001116 105.1391 254.9721 15.06408284190267
STARLINK-1628           
1 46169U 20057BE  24021.89347159 -.00004043  00000+0 -25273-3 0  9999
2 46169  53.0523 208.6636 0001271  81.9166 278.1967 15.06390263188775
STARLINK-1633           
1 46171U 20057BG  24022.71723135  .00001857  00000+0  14345-3 0  9992
2 46171  53.0548 184.5799 0001252  86.3275 273.7857 15.06412498189894
STARLINK-1635           
1 46172U 20057BH  24022.46659181  .00000104  00000+0  25867-4 0  9990
2 46172  53.0533 185.7028 0001212  82.8517 277.2609 15.06403212189857
STARLINK-1640           
1 46173U 20057BJ  24022.77804743  .00001796  00000+0  13940-3 0  9997
2 46173  53.0530 204.3068 0001229  90.9879 269.1251 15.06412150189625
STARLINK-1641           
1 46174U 20057BK  24022.52003788  .00000889  00000+0  78554-4 0  9996
2 46174  53.0528 205.4636 0001209 102.9816 257.1308 15.06407827189589
